NORAD_CAT_ID,OBJECT_NAME,OBJECT_TYPE,EPOCH,MEAN_MOTION,ECCENTRICITY,INCLINATION,RA_OF_ASC_NODE,ARG_OF_PERICENTER,MEAN_ANOMALY,BSTAR,MEAN_MOTION_DOT,MEAN_MOTION_DDOT,TLE_LINE0,TLE_LINE1,TLE_LINE2,SEMIMAJOR_AXIS,PERIOD,APOGEE,PERIGEE,DECAYED
50844.0,STARLINK-3326,PAYLOAD,2023-04-02 13:40:01,15.08849983,9.08e-05,53.2164,312.0566,87.1604,272.9492,0.00091698,0.0001434,0.0,0 STARLINK-3326,1 50844U 22001AT  23092.56945614  .00014340  00000-0  91698-3 0  9990,2 50844  53.2164 312.0566 0000908  87.1604 272.9492 15.08849983 68419,6917.85,95.437,540.343,539.087,0.0
50844.0,STARLINK-3326,PAYLOAD,2023-04-02 21:36:56,15.08860642,9.67e-05,53.2168,310.5706,91.4475,268.6628,0.00089146,0.00013936,0.0,0 STARLINK-3326,1 50844U 22001AT  23092.90065166  .00013936  00000-0  89146-3 0  9998,2 50844  53.2168 310.5706 0000967  91.4475 268.6628 15.08860642 69746,6917.817,95.436,540.351,539.013,0.0
50844.0,STARLINK-3326,PAYLOAD,2023-04-03 13:30:47,15.08859583,0.0001222,53.2166,307.6011,108.2268,251.8857,0.00012023,1.627e-05,0.0,0 STARLINK-3326,1 50844U 22001AT  23093.56304612  .00001627  00000-0  12023-3 0  9997,2 50844  53.2166 307.6011 0001222 108.2268 251.8857 15.08859583 69843,6917.821,95.436,540.531,538.84,0.0
50844.0,STARLINK-3326,PAYLOAD,2023-04-03 21:27:43,15.08848983,7.55e-05,53.2161,306.1097,86.6345,273.4733,0.00035768,5.411e-05,0.0,0 STARLINK-3326,1 50844U 22001AT  23093.89425067  .00005411  00000-0  35768-3 0  9997,2 50844  53.2161 306.1097 0000755  86.6345 273.4733 15.08848983 69891,6917.853,95.437,540.24,539.196,0.0
50844.0,STARLINK-3326,PAYLOAD,2023-04-04 00:38:29,15.08852655,8.34e-05,53.2151,305.5143,86.7086,273.4002,0.00053214,8.194e-05,0.0,0 STARLINK-3326,1 50844U 22001AT  23094.02672962  .00008194  00000-0  53214-3 0  9998,2 50844  53.2151 305.5143 0000834  86.7086 273.4002 15.08852655 68637,6917.842,95.437,540.284,539.13,0.0
50844.0,STARLINK-3326,PAYLOAD,2023-04-04 21:18:30,15.0884714,8.05e-05,53.2134,301.6464,102.2504,257.8578,0.00041331,6.297e-05,0.0,0 STARLINK-3326,1 50844U 22001AT  23094.88784955  .00006297  00000-0  41331-3 0  9997,2 50844  53.2134 301.6464 0000805 102.2504 257.8578 15.08847140 70043,6917.859,95.437,540.28,539.167,0.0
50844.0,STARLINK-3326,PAYLOAD,2023-04-05 00:29:16,15.08843594,8.39e-05,53.2138,301.0528,105.4932,254.6153,0.00016704,2.372e-05,0.0,0 STARLINK-3326,1 50844U 22001AT  23095.02032928  .00002372  00000-0  16704-3 0  9996,2 50844  53.2138 301.0528 0000839 105.4932 254.6153 15.08843594 68780,6917.869,95.437,540.315,539.154,0.0
50844.0,STARLINK-3326,PAYLOAD,2023-04-05 21:09:17,15.08843574,9.66e-05,53.2158,297.1879,88.7915,271.3188,0.00015243,2.139e-05,0.0,0 STARLINK-3326,1 50844U 22001AT  23095.88145135  .00002139  00000-0  15243-3 0  9993,2 50844  53.2158 297.1879 0000966  88.7915 271.3188 15.08843574 70191,6917.869,95.437,540.403,539.066,0.0
50844.0,STARLINK-3326,PAYLOAD,2023-04-06 13:03:08,15.08840445,0.0001201,53.2167,294.2163,70.7396,289.3726,0.00011817,1.593e-05,0.0,0 STARLINK-3326,1 50844U 22001AT  23096.54385252  .00001593  00000-0  11817-3 0  9999,2 50844  53.2167 294.2163 0001201  70.7396 289.3726 15.08840445 69012,6917.879,95.438,540.575,538.913,0.0
50844.0,STARLINK-3326,PAYLOAD,2023-04-06 22:35:25,15.08884491,0.0001379,53.2141,292.4322,65.1303,294.9833,0.00079321,0.00012374,0.0,0 STARLINK-3326,1 50844U 22001AT  23096.94127290  .00012374  00000-0  79321-3 0  9992,2 50844  53.2141 292.4322 0001379  65.1303 294.9833 15.08884491 70352,6917.744,95.435,540.563,538.655,0.0
50844.0,STARLINK-3326,PAYLOAD,2023-04-07 12:53:55,15.08839916,7.84e-05,53.216,289.7532,104.8802,255.2277,-4.5048e-05,-1.005e-05,0.0,0 STARLINK-3326,1 50844U 22001AT  23097.53744452 -.00001005  00000-0 -45048-4 0  9994,2 50844  53.2160 289.7532 0000784 104.8802 255.2277 15.08839916 70443,6917.881,95.438,540.288,539.203,0.0
50844.0,STARLINK-3326,PAYLOAD,2023-04-07 19:15:28,15.08828949,9.28e-05,53.216,288.5661,86.7,273.4098,-0.0002755,-4.668e-05,0.0,0 STARLINK-3326,1 50844U 22001AT  23097.80240948 -.00004668  00000-0 -27550-3 0  9990,2 50844  53.2160 288.5661 0000928  86.7000 273.4098 15.08828949 70482,6917.914,95.438,540.421,539.137,0.0
50844.0,STARLINK-3326,PAYLOAD,2023-04-08 12:44:42,15.08836388,0.0001517,53.2131,285.293,89.9215,270.1951,-0.00031814,-5.347e-05,0.0,0 STARLINK-3326,1 50844U 22001AT  23098.53104952 -.00005347  00000-0 -31814-3 0  9998,2 50844  53.2131 285.2930 0001517  89.9215 270.1951 15.08836388 70591,6917.891,95.438,540.806,538.707,0.0
50844.0,STARLINK-3326,PAYLOAD,2023-04-08 19:06:15,15.08843371,5.61e-05,53.2159,284.1035,81.5782,278.5274,-2.4549e-05,-6.78e-06,0.0,0 STARLINK-3326,1 50844U 22001AT  23098.79600772 -.00000678  00000-0 -24549-4 0  9997,2 50844  53.2159 284.1035 0000561  81.5782 278.5274 15.08843371 70635,6917.87,95.437,540.123,539.347,0.0
50844.0,STARLINK-3326,PAYLOAD,2023-04-09 12:35:30,15.08835743,6.8e-05,53.2159,280.8318,94.5434,265.5635,0.00031888,4.79e-05,0.0,0 STARLINK-3326,1 50844U 22001AT  23099.52465779  .00004790  00000-0  31888-3 0  9995,2 50844  53.2159 280.8318 0000680  94.5434 265.5635 15.08835743 70745,6917.893,95.438,540.229,539.288,0.0
50844.0,STARLINK-3326,PAYLOAD,2023-04-09 18:57:02,15.088422,7.46e-05,53.2162,279.643,92.8441,267.2637,0.0004261,6.501e-05,0.0,0 STARLINK-3326,1 50844U 22001AT  23099.78961643  .00006501  00000-0  42610-3 0  9991,2 50844  53.2162 279.6430 0000746  92.8441 267.2637 15.08842200 69501,6917.874,95.437,540.255,539.223,0.0
50844.0,STARLINK-3326,PAYLOAD,2023-04-10 12:26:17,15.08841552,8.36e-05,53.2149,276.3709,94.2982,265.8105,6.6066e-05,7.64e-06,0.0,0 STARLINK-3326,1 50844U 22001AT  23100.51825567  .00000764  00000-0  66066-4 0  9996,2 50844  53.2149 276.3709 0000836  94.2982 265.8105 15.08841552 69610,6917.876,95.437,540.319,539.162,0.0
50844.0,STARLINK-3326,PAYLOAD,2023-04-10 20:23:12,15.08851349,7.69e-05,53.2161,274.8846,95.8342,264.2738,0.00028534,4.258e-05,0.0,0 STARLINK-3326,1 50844U 22001AT  23100.84945129  .00004258  00000-0  28534-3 0  9998,2 50844  53.2161 274.8846 0000769  95.8342 264.2738 15.08851349 70949,6917.846,95.437,540.243,539.179,0.0
50844.0,STARLINK-3326,PAYLOAD,2023-04-11 12:17:04,15.08836389,9.96e-05,53.2163,271.9107,89.4096,270.701,-1.2709e-05,-4.9e-06,0.0,0 STARLINK-3326,1 50844U 22001AT  23101.51185746 -.00000490  00000-0 -12709-4 0  9998,2 50844  53.2163 271.9107 0000996  89.4096 270.7010 15.08836389 69766,6917.891,95.438,540.445,539.067,0.0
50844.0,STARLINK-3326,PAYLOAD,2023-04-12 12:07:51,15.08835433,0.0001204,53.2192,267.4524,74.0221,286.0904,5.7154e-05,6.22e-06,0.0,0 STARLINK-3326,1 50844U 22001AT  23102.50546099  .00000622  00000-0  57154-4 0  9998,2 50844  53.2192 267.4524 0001204  74.0221 286.0904 15.08835433 71195,6917.894,95.438,540.592,538.926,0.0
50844.0,STARLINK-3326,PAYLOAD,2023-04-13 10:23:15,15.08841473,0.000133,53.215,263.2867,67.968,292.1453,0.00023303,3.423e-05,0.0,0 STARLINK-3326,1 50844U 22001AT  23103.43282254  .00003423  00000-0  23303-3 0  9991,2 50844  53.2150 263.2867 0001330  67.9680 292.1453 15.08841473 70055,6917.876,95.437,540.661,538.821,0.0
50844.0,STARLINK-3326,PAYLOAD,2023-04-14 10:14:02,15.08843028,0.0001667,53.2154,258.8306,57.2343,302.8809,0.00011481,1.54e-05,0.0,0 STARLINK-3326,1 50844U 22001AT  23104.42642265  .00001540  00000-0  11481-3 0  9995,2 50844  53.2154 258.8306 0001667  57.2343 302.8809 15.08843028 70207,6917.871,95.437,540.889,538.583,0.0
50844.0,STARLINK-3326,PAYLOAD,2023-04-15 03:43:17,15.08838092,0.000264,53.2105,255.5589,67.2465,292.8805,-0.00016715,-2.948e-05,0.0,0 STARLINK-3326,1 50844U 22001AT  23105.15506475 -.00002948  00000-0 -16715-3 0  9998,2 50844  53.2105 255.5589 0002640  67.2465 292.8805 15.08838092 71590,6917.886,95.438,541.578,537.925,0.0
50844.0,STARLINK-3326,PAYLOAD,2023-04-15 13:15:36,15.0883644,0.0001503,53.2151,253.775,56.3404,303.7731,-4.9198e-05,-1.071e-05,0.0,0 STARLINK-3326,1 50844U 22001AT  23105.55250489 -.00001071  00000-0 -49198-4 0  9991,2 50844  53.2151 253.7750 0001503  56.3404 303.7731 15.08836440 70370,6917.891,95.438,540.796,538.717,0.0
50844.0,STARLINK-3326,PAYLOAD,2023-04-15 16:26:22,15.08844541,0.0001229,53.2166,253.18,61.5658,298.5458,7.3257e-05,8.78e-06,0.0,0 STARLINK-3326,1 50844U 22001AT  23105.68498026  .00000878  00000-0  73257-4 0  9991,2 50844  53.2166 253.1800 0001229  61.5658 298.5458 15.08844541 70390,6917.867,95.437,540.582,538.881,0.0
50844.0,STARLINK-3326,PAYLOAD,2023-04-15 21:12:31,15.08852579,0.0001067,53.2173,252.2858,64.1748,295.9354,0.00018137,2.601e-05,0.0,0 STARLINK-3326,1 50844U 22001AT  23105.88369516  .00002601  00000-0  18137-3 0  9995,2 50844  53.2173 252.2858 0001067  64.1748 295.9354 15.08852579 71702,6917.842,95.437,540.445,538.969,0.0
50844.0,STARLINK-3326,PAYLOAD,2023-04-16 13:06:23,15.0884012,0.0001319,53.2143,249.3133,72.9238,287.1899,5.9506e-05,6.59e-06,0.0,0 STARLINK-3326,1 50844U 22001AT  23106.54610276  .00000659  00000-0  59506-4 0  9998,2 50844  53.2143 249.3133 0001319  72.9238 287.1899 15.08840120 71800,6917.88,95.438,540.657,538.833,0.0
50844.0,STARLINK-3326,PAYLOAD,2023-04-16 19:27:55,15.0885383,0.0001126,53.2157,248.1225,74.4181,285.6936,0.00033922,5.117e-05,0.0,0 STARLINK-3326,1 50844U 22001AT  23106.81105704  .00005117  00000-0  33922-3 0  9990,2 50844  53.2157 248.1225 0001126  74.4181 285.6936 15.08853830 71845,6917.838,95.437,540.482,538.924,0.0
50844.0,STARLINK-3326,PAYLOAD,2023-04-17 01:49:27,15.0884803,0.000101,53.2165,246.9316,74.0065,286.1039,0.00029232,4.369e-05,0.0,0 STARLINK-3326,1 50844U 22001AT  23107.07601850  .00004369  00000-0  29232-3 0  9999,2 50844  53.2165 246.9316 0001010  74.0065 286.1039 15.08848030 71880,6917.856,95.437,540.42,539.022,0.0
50844.0,STARLINK-3326,PAYLOAD,2023-04-17 12:57:10,15.08839202,0.0001331,53.2171,244.8521,92.8329,267.2816,8.1042e-05,1.002e-05,0.0,0 STARLINK-3326,1 50844U 22001AT  23107.53970324  .00001002  00000-0  81042-4 0  9994,2 50844  53.2171 244.8521 0001331  92.8329 267.2816 15.08839202 71951,6917.883,95.438,540.669,538.827,0.0
